[{"OBJECT_NAME":"STARLINK-35175","OBJECT_ID":"2025-225V","EPOCH":"2026-03-09T12:40:38.991648","MEAN_MOTION":15.30192886,"ECCENTRICITY":9.806e-5,"INCLINATION":53.16,"RA_OF_ASC_NODE":166.409,"ARG_OF_PERICENTER":69.0864,"MEAN_ANOMALY":291.0242,"EPHEMERIS_TYPE":0,"CLASSIFICATION_TYPE":"U","NORAD_CAT_ID":65929,"ELEMENT_SET_NO":999,"REV_AT_EPOCH":2438,"BSTAR":0.0009673652,"MEAN_MOTION_DOT":0.00028395,"MEAN_MOTION_DDOT":0},{"OBJECT_NAME":"PEGASUS DEB","OBJECT_ID":"1994-029AES","EPOCH":"2026-03-06T17:32:52.876320","MEAN_MOTION":15.2736598,"ECCENTRICITY":0.00781089,"INCLINATION":81.9406,"RA_OF_ASC_NODE":336.1125,"ARG_OF_PERICENTER":102.4632,"MEAN_ANOMALY":258.5359,"EPHEMERIS_TYPE":0,"CLASSIFICATION_TYPE":"U","NORAD_CAT_ID":39307,"ELEMENT_SET_NO":999,"REV_AT_EPOCH":76792,"BSTAR":0.0021826707,"MEAN_MOTION_DOT":0.00064449,"MEAN_MOTION_DDOT":0}]
